start=new Date('2021-10-10T00:00:00.000Z').valueOf();
sats=[{"EPOCH":"2021-10-09T17:46:58.466208","TIME_SYSTEM":"UTC","MEAN_MOTION":"15.06385631","PERIOD":"95.593","ELEMENT_SET_NO":"999","EPHEMERIS_TYPE":"0","OBJECT_TYPE":"PAYLOAD","RA_OF_ASC_NODE":"77.9244","SEMIMAJOR_AXIS":"6925.393","TLE_LINE1":"1 47556U 21009J   21282.74095447 -.00000485  00000-0 -13665-4 0  9998","BSTAR":"-0.00001366500000","MEAN_ELEMENT_THEORY":"SGP4","COUNTRY_CODE":"US","APOAPSIS":"548.649","GP_ID":"186728827","SITE":"AFETR","OBJECT_ID":"2021-009J","RCS_SIZE":"LARGE","INCLINATION":"53.0551","FILE":"3153808","PERIAPSIS":"545.866","REV_AT_EPOCH":"3755","OBJECT_NAME":"STARLINK-1955","ECCENTRICITY":"0.00020090","DECAY_DATE":null,"LAUNCH_DATE":"2021-02-04","ARG_OF_PERICENTER":"93.0548","CENTER_NAME":"EARTH","MEAN_ANOMALY":"267.0671","MEAN_MOTION_DDOT":"0.0000000000000","CLASSIFICATION_TYPE":"U","NORAD_CAT_ID":"47556","TLE_LINE2":"2 47556  53.0551  77.9244 0002009  93.0548 267.0671 15.06385631 37558","REF_FRAME":"TEME","MEAN_MOTION_DOT":"-0.00000485"},{"COUNTRY_CODE":"US","MEAN_ELEMENT_THEORY":"SGP4","BSTAR":"0.00000076750000","TLE_LINE1":"1 47557U 21009K   21282.70409599 -.00000270  00000-0  76750-6 0  9999","SEMIMAJOR_AXIS":"6925.359","INCLINATION":"53.0554","RCS_SIZE":"LARGE","OBJECT_ID":"2021-009K","SITE":"AFETR","GP_ID":"186729574","APOAPSIS":"548.328","PERIOD":"95.592","MEAN_MOTION":"15.06396534","TIME_SYSTEM":"UTC","EPOCH":"2021-10-09T16:53:53.893536","RA_OF_ASC_NODE":"78.1092","EPHEMERIS_TYPE":"0","OBJECT_TYPE":"PAYLOAD","ELEMENT_SET_NO":"999","MEAN_MOTION_DDOT":"0.0000000000000","MEAN_ANOMALY":"261.5346","CENTER_NAME":"EARTH","ARG_OF_PERICENTER":"98.5824","MEAN_MOTION_DOT":"-0.00000270","REF_FRAME":"TEME","NORAD_CAT_ID":"47557","TLE_LINE2":"2 47557  53.0554  78.1092 0001594  98.5824 261.5346 15.06396534 37553","CLASSIFICATION_TYPE":"U","REV_AT_EPOCH":"3755","PERIAPSIS":"546.120","FILE":"3153808","LAUNCH_DATE":"2021-02-04","DECAY_DATE":null,"ECCENTRICITY":"0.00015940","OBJECT_NAME":"STARLINK-1956"},{"ELEMENT_SET_NO":"999","EPHEMERIS_TYPE":"0","OBJECT_TYPE":"PAYLOAD","RA_OF_ASC_NODE":"48.4778","EPOCH":"2021-10-09T14:50:28.136544","TIME_SYSTEM":"UTC","PERIOD":"95.592","MEAN_MOTION":"15.06408102","APOAPSIS":"548.437","GP_ID":"186727827","INCLINATION":"53.0550","RCS_SIZE":"LARGE","OBJECT_ID":"2021-009L","SITE":"AFETR","TLE_LINE1":"1 47558U 21009L   21282.61838121  .00000180  00000-0  31000-4 0  9993","BSTAR":"0.00003100000000","SEMIMAJOR_AXIS":"6925.324","COUNTRY_CODE":"US","MEAN_ELEMENT_THEORY":"SGP4","ECCENTRICITY":"0.00018020","OBJECT_NAME":"STARLINK-1957","DECAY_DATE":null,"LAUNCH_DATE":"2021-02-04","FILE":"3153808","PERIAPSIS":"545.941","REV_AT_EPOCH":"3795","CLASSIFICATION_TYPE":"U","REF_FRAME":"TEME","TLE_LINE2":"2 47558  53.0550  48.4778 0001802  94.0460 266.0735 15.06408102 37951","NORAD_CAT_ID":"47558","MEAN_MOTION_DOT":"0.00000180","ARG_OF_PERICENTER":"94.0460","CENTER_NAME":"EARTH","MEAN_ANOMALY":"266.0735","MEAN_MOTION_DDOT":"0.0000000000000"},{"RA_OF_ASC_NODE":"38.0561","ELEMENT_SET_NO":"999","OBJECT_TYPE":"PAYLOAD","EPHEMERIS_TYPE":"0","PERIOD":"95.593","MEAN_MOTION":"15.06392680","EPOCH":"2021-10-09T17:09:49.156992","TIME_SYSTEM":"UTC","GP_ID":"186728072","RCS_SIZE":"LARGE","INCLINATION":"53.0579","OBJECT_ID":"2021-009M","SITE":"AFETR","APOAPSIS":"548.311","COUNTRY_CODE":"US","MEAN_ELEMENT_THEORY":"SGP4","BSTAR":"-0.00008965100000","TLE_LINE1":"1 47559U 21009M   21282.71515228 -.00001616  00000-0 -89651-4 0  9997","SEMIMAJOR_AXIS":"6925.371","LAUNCH_DATE":"2021-02-04","ECCENTRICITY":"0.00015520","OBJECT_NAME":"STARLINK-1958","DECAY_DATE":null,"PERIAPSIS":"546.161","REV_AT_EPOCH":"3811","FILE":"3153808","REF_FRAME":"TEME","TLE_LINE2":"2 47559  53.0579  38.0561 0001552 106.5032 253.6128 15.06392680 38114","NORAD_CAT_ID":"47559","MEAN_MOTION_DOT":"-0.00001616","CLASSIFICATION_TYPE":"U","CENTER_NAME":"EARTH","MEAN_ANOMALY":"253.6128","MEAN_MOTION_DDOT":"0.0000000000000","ARG_OF_PERICENTER":"106.5032"},{"SEMIMAJOR_AXIS":"6925.365","BSTAR":"0.00002210000000","TLE_LINE1":"1 47560U 21009N   21282.70777931  .00000048  00000-0  22100-4 0  9991","MEAN_ELEMENT_THEORY":"SGP4","COUNTRY_CODE":"US","APOAPSIS":"548.141","SITE":"AFETR","RCS_SIZE":"LARGE","INCLINATION":"53.0558","OBJECT_ID":"2021-009N","GP_ID":"186729327","TIME_SYSTEM":"UTC","EPOCH":"2021-10-09T16:59:12.132384","MEAN_MOTION":"15.06394591","PERIOD":"95.592","EPHEMERIS_TYPE":"0","OBJECT_TYPE":"PAYLOAD","ELEMENT_SET_NO":"999","RA_OF_ASC_NODE":"38.0964","ARG_OF_PERICENTER":"95.8315","MEAN_MOTION_DDOT":"0.0000000000000","CENTER_NAME":"EARTH","MEAN_ANOMALY":"264.2824","CLASSIFICATION_TYPE":"U","MEAN_MOTION_DOT":"0.00000048","TLE_LINE2":"2 47560  53.0558  38.0964 0001315  95.8315 264.2824 15.06394591 38115","NORAD_CAT_ID":"47560","REF_FRAME":"TEME","FILE":"3153808","REV_AT_EPOCH":"3811","PERIAPSIS":"546.319","DECAY_DATE":null,"ECCENTRICITY":"0.00013150","OBJECT_NAME":"STARLINK-1959","LAUNCH_DATE":"2021-02-04"},{"RA_OF_ASC_NODE":"57.8434","ELEMENT_SET_NO":"999","OBJECT_TYPE":"PAYLOAD","EPHEMERIS_TYPE":"0","MEAN_MOTION":"15.06396967","PERIOD":"95.592","EPOCH":"2021-10-09T18:16:08.855040","TIME_SYSTEM":"UTC","GP_ID":"186729075","RCS_SIZE":"LARGE","INCLINATION":"53.0591","OBJECT_ID":"2021-009P","SITE":"AFETR","APOAPSIS":"549.706","COUNTRY_CODE":"US","MEAN_ELEMENT_THEORY":"SGP4","BSTAR":"-0.00001577100000","TLE_LINE1":"1 47561U 21009P   21282.76121360 -.00000517  00000-0 -15771-4 0  9996","SEMIMAJOR_AXIS":"6925.358","LAUNCH_DATE":"2021-02-04","OBJECT_NAME":"STARLINK-1960","ECCENTRICITY":"0.00035860","DECAY_DATE":null,"PERIAPSIS":"544.739","REV_AT_EPOCH":"3784","FILE":"3153808","REF_FRAME":"TEME","NORAD_CAT_ID":"47561","TLE_LINE2":"2 47561  53.0591  57.8434 0003586 330.7323  29.3464 15.06396967 37844","MEAN_MOTION_DOT":"-0.00000517","CLASSIFICATION_TYPE":"U","MEAN_ANOMALY":"29.3464","CENTER_NAME":"EARTH","MEAN_MOTION_DDOT":"0.0000000000000","ARG_OF_PERICENTER":"330.7323"},{"MEAN_MOTION":"15.06394591","PERIOD":"95.592","EPOCH":"2021-10-09T15:26:19.336704","TIME_SYSTEM":"UTC","RA_OF_ASC_NODE":"58.3745","ELEMENT_SET_NO":"999","EPHEMERIS_TYPE":"0","OBJECT_TYPE":"PAYLOAD","MEAN_ELEMENT_THEORY":"SGP4","COUNTRY_CODE":"US","SEMIMAJOR_AXIS":"6925.365","TLE_LINE1":"1 47562U 21009Q   21282.64327936 -.00000236  00000-0  30826-5 0  9997","BSTAR":"0.00000308260000","GP_ID":"186728327","SITE":"AFETR","RCS_SIZE":"LARGE","OBJECT_ID":"2021-009Q","INCLINATION":"53.0564","APOAPSIS":"548.761","PERIAPSIS":"545.699","REV_AT_EPOCH":"3782","FILE":"3153808","LAUNCH_DATE":"2021-02-04","ECCENTRICITY":"0.00022110","OBJECT_NAME":"STARLINK-1961","DECAY_DATE":null,"MEAN_ANOMALY":"264.9212","CENTER_NAME":"EARTH","MEAN_MOTION_DDOT":"0.0000000000000","ARG_OF_PERICENTER":"95.2029","TLE_LINE2":"2 47562  53.0564  58.3745 0002211  95.2029 264.9212 15.06394591 37823","NORAD_CAT_ID":"47562","REF_FRAME":"TEME","MEAN_MOTION_DOT":"-0.00000236","CLASSIFICATION_TYPE":"U"},{"SEMIMAJOR_AXIS":"6925.319","TLE_LINE1":"1 47563U 21009R   21282.73172657 -.00000510  00000-0 -15329-4 0  9992","BSTAR":"-0.00001532900000","MEAN_ELEMENT_THEORY":"SGP4","COUNTRY_CODE":"US","APOAPSIS":"548.253","SITE":"AFETR","RCS_SIZE":"LARGE","OBJECT_ID":"2021-009R","INCLINATION":"53.0571","GP_ID":"186728572","TIME_SYSTEM":"UTC","EPOCH":"2021-10-09T17:33:41.175648","MEAN_MOTION":"15.06409637","PERIOD":"95.592","OBJECT_TYPE":"PAYLOAD","EPHEMERIS_TYPE":"0","ELEMENT_SET_NO":"999","RA_OF_ASC_NODE":"57.9750","ARG_OF_PERICENTER":"104.9863","MEAN_MOTION_DDOT":"0.0000000000000","MEAN_ANOMALY":"255.1297","CENTER_NAME":"EARTH","CLASSIFICATION_TYPE":"U","MEAN_MOTION_DOT":"-0.00000510","NORAD_CAT_ID":"47563","TLE_LINE2":"2 47563  53.0571  57.9750 0001544 104.9863 255.1297 15.06409637 37839","REF_FRAME":"TEME","FILE":"3153808","REV_AT_EPOCH":"3783","PERIAPSIS":"546.115","DECAY_DATE":null,"OBJECT_NAME":"STARLINK-1962","ECCENTRICITY":"0.00015440","LAUNCH_DATE":"2021-02-04"},{"CENTER_NAME":"EARTH","MEAN_ANOMALY":"271.7693","MEAN_MOTION_DDOT":"0.0000000000000","ARG_OF_PERICENTER":"88.3462","NORAD_CAT_ID":"47564","TLE_LINE2":"2 47564  53.0563  48.2674 0001455  88.3462 271.7693 15.06398004 37963","REF_FRAME":"TEME","MEAN_MOTION_DOT":"0.00000271","CLASSIFICATION_TYPE":"U","PERIAPSIS":"546.212","REV_AT_EPOCH":"3796","FILE":"3153808","LAUNCH_DATE":"2021-02-04","ECCENTRICITY":"0.00014550","OBJECT_NAME":"STARLINK-1963","DECAY_DATE":null,"MEAN_ELEMENT_THEORY":"SGP4","COUNTRY_CODE":"US","SEMIMAJOR_AXIS":"6925.355","BSTAR":"0.00003706900000","TLE_LINE1":"1 47564U 21009S   21282.66630769  .00000271  00000-0  37069-4 0  9995","GP_ID":"186728828","SITE":"AFETR","INCLINATION":"53.0563","RCS_SIZE":"LARGE","OBJECT_ID":"2021-009S","APOAPSIS":"548.227","PERIOD":"95.592","MEAN_MOTION":"15.06398004","EPOCH":"2021-10-09T15:59:28.984416","TIME_SYSTEM":"UTC","RA_OF_ASC_NODE":"48.2674","ELEMENT_SET_NO":"999","EPHEMERIS_TYPE":"0","OBJECT_TYPE":"PAYLOAD"},{"GP_ID":"186729575","INCLINATION":"53.0567","RCS_SIZE":"LARGE","OBJECT_ID":"2021-009T","SITE":"AFETR","APOAPSIS":"548.446","COUNTRY_CODE":"US","MEAN_ELEMENT_THEORY":"SGP4","BSTAR":"0.00002269900000","TLE_LINE1":"1 47565U 21009T   21282.72897155  .00000056  00000-0  22699-4 0  9991","SEMIMAJOR_AXIS":"6925.368","RA_OF_ASC_NODE":"47.9853","ELEMENT_SET_NO":"999","OBJECT_TYPE":"PAYLOAD","EPHEMERIS_TYPE":"0","PERIOD":"95.593","MEAN_MOTION":"15.06393674","EPOCH":"2021-10-09T17:29:43.141920","TIME_SYSTEM":"UTC","REF_FRAME":"TEME","NORAD_CAT_ID":"47565","TLE_LINE2":"2 47565  53.0567  47.9853 0001751  91.8176 268.3013 15.06393674 37970","MEAN_MOTION_DOT":"0.00000056","CLASSIFICATION_TYPE":"U","MEAN_ANOMALY":"268.3013","CENTER_NAME":"EARTH","MEAN_MOTION_DDOT":"0.0000000000000","ARG_OF_PERICENTER":"91.8176","LAUNCH_DATE":"2021-02-04","OBJECT_NAME":"STARLINK-1964","ECCENTRICITY":"0.00017510","DECAY_DATE":null,"PERIAPSIS":"546.020","REV_AT_EPOCH":"3797","FILE":"3153808"}];
